
STARLINK-2417           
1 48096U 21027E   24335.71843271  .00004588  00000+0  32660-3 0  9993
2 48096  53.0516  94.4677 0001593 102.4121 257.7046 15.06408483202481
STARLINK-2418           
1 48097U 21027F   24335.69814513  .00001494  00000+0  11911-3 0  9997
2 48097  53.0519  74.5558 0001613  99.3975 260.7196 15.06426557202769
STARLINK-2421           
1 48098U 21027G   24336.00685746  .00001113  00000+0  93594-4 0  9994
2 48098  53.0540  83.1653 0001622  70.7588 289.3576 15.06415861202326
STARLINK-2428           
1 48099U 21027H   24336.06123919 -.00006640  00000+0 -42716-3 0  9991
2 48099  53.0546  92.9222 0002740  86.4291 273.7012 15.06406915202131
STARLINK-2430           
1 48100U 21027J   24335.75713361  .00022369  00000+0  15139-2 0  9997
2 48100  53.0538  74.2894 0001812  91.7673 268.3524 15.06448097202770
STARLINK-2436           
1 48101U 21027K   24335.29551135  .00008899  00000+0  61555-3 0  9992
2 48101  53.0561  86.5668 0001427  58.3959 301.7169 15.06402230202563
STARLINK-2437           
1 48102U 21027L   24335.98198777 -.00004981  00000+0 -31577-3 0  9999
2 48102  53.0539  73.2797 0001594  76.7431 283.3736 15.06394535202405
STARLINK-2439           
1 48104U 21027N   24335.73640749  .00022514  00000+0  15235-2 0  9997
2 48104  53.0550  79.3819 0001345  79.5973 280.5168 15.06449651202709
STARLINK-2440           
1 48105U 21027P   24336.17459818 -.00007338  00000+0 -47441-3 0  9996
2 48105  53.0552  22.4179 0001588  99.6777 260.4391 15.06383632203133
STARLINK-2442           
1 48106U 21027Q   24335.76082184  .00027372  00000+0  18465-2 0  9990
2 48106  53.0556  74.2848 0001368  62.9484 297.1645 15.06457190202779
STARLINK-2443           
1 48107U 21027R   24335.97462575 -.00004301  00000+0 -26995-3 0  9997
2 48107  53.0542  73.3125 0002286  78.7903 281.3343 15.06401620202401
STARLINK-2447           
1 48110U 21027U   24336.00317936 -.00004661  00000+0 -29436-3 0  9998
2 48110  53.0542  83.1828 0002059  89.6119 270.5106 15.06380140202277
STARLINK-2448           
1 48111U 21027V   24335.99581567 -.00004948  00000+0 -31362-3 0  9998
2 48111  53.0513  83.1856 0005382  77.6169 282.5422 15.06363392202275
STARLINK-2449           
1 48112U 21027W   24335.78987889 -.00001525  00000+0 -83500-4 0  9993
2 48112  53.0532  99.3051 0001523  90.6331 269.4833 15.06386775202429
STARLINK-2450           
1 48113U 21027X   24336.05756049 -.00006251  00000+0 -40146-3 0  9996
2 48113  53.0536  92.9406 0001007 103.9348 256.1753 15.06373386202136
STARLINK-2452           
1 48115U 21027Z   24335.78202828  .00002595  00000+0  19306-3 0  9997
2 48115  53.0537  84.1902 0001561  81.3936 278.7230 15.06398530202633
STARLINK-2454           
1 48116U 21027AA  24336.05386456 -.00016170  00000+0 -10696-2 0  9997
2 48116  53.0548  92.9583 0000948 101.2638 258.8457 15.06383380202139
STARLINK-2455           
1 48117U 21027AB  24335.62718718  .00024709  00000+0  16699-2 0  9994
2 48117  53.0542  74.8657 0001449  70.9109 289.2037 15.06443970202759
STARLINK-2459           
1 48119U 21027AD  24335.30282852  .00024285  00000+0  16425-2 0  9992
2 48119  53.0549  76.3183 0001451  83.2160 276.8995 15.06425760202691
STARLINK-2460           
1 48120U 21027AE  24336.03911434 -.00004785  00000+0 -30250-3 0  9998
2 48120  53.0536  93.0166 0003366  77.0924 283.0441 15.06397603202131
STARLINK-2462           
1 48121U 21027AF  24336.01054979  .00000421  00000+0  47161-4 0  9990
2 48121  53.0553  83.1437 0002495  78.5368 281.5901 15.06394043202276
STARLINK-2463           
1 48122U 21027AG  24335.91667824  .01174253  00000+0  35189-1 0  9998
2 48122  53.0518  77.5268 0001351  71.0197 311.6722 15.31385706  5849
STARLINK-2464           
1 48123U 21027AH  24335.75346237  .00011609  00000+0  79657-3 0  9997
2 48123  53.0539  74.3120 0001612  80.2309 279.8862 15.06418322202776
STARLINK-2465           
1 48124U 21027AJ  24336.01794505 -.00004863  00000+0 -30803-3 0  9999
2 48124  53.0534  83.1174 0001773  89.9528 270.1665 15.06372373202271
STARLINK-2466           
1 48125U 21027AK  24336.03177464 -.00001894  00000+0 -10831-3 0  9991
2 48125  53.0543  93.2929 0001243  87.0126 273.1005 15.06399334202139
STARLINK-2467           
1 48126U 21027AL  24335.58759560  .00003981  00000+0  28589-3 0  9990
2 48126  53.0532  75.0545 0001239  90.1396 269.9735 15.06412667202755
STARLINK-2468           
1 48127U 21027AM  24335.84375219  .00017836  00000+0  12117-2 0  9998
2 48127  53.0532  93.8991 0001346  78.5928 281.5212 15.06447949202109
STARLINK-2469           
1 48128U 21027AN  24335.62538102  .00027210  00000+0  18354-2 0  9993
2 48128  53.0558  24.9683 0001417  98.5402 261.5748 15.06464098203050
STARLINK-2471           
1 48129U 21027AP  24336.03543673 -.00008800  00000+0 -57244-3 0  9997
2 48129  53.0530  93.0398 0001685  77.4818 282.6360 15.06408418202131
STARLINK-2472           
1 48130U 21027AQ  24336.07742768 -.00001702  00000+0 -95372-4 0  9998
2 48130  53.0528  98.4012 0001278 104.3301 255.7830 15.06400279202069
STARLINK-2473           
1 48131U 21027AR  24335.97833722  .00011928  00000+0  81981-3 0  9997
2 48131  53.0552  73.2901 0004762  76.2231 283.9288 15.06328732202406
STARLINK-2474           
1 48132U 21027AS  24336.02436946  .00021614  00000+0  14659-2 0  9992
2 48132  53.0529  93.0857 0002472  75.7670 284.3594 15.06388770202131
STARLINK-2475           
1 48133U 21027AT  24335.82163244  .00007153  00000+0  49824-3 0  9993
2 48133  53.0517  94.0015 0001063  96.5822 263.5288 15.06427639202509
STARLINK-2476           
1 48134U 21027AU  24336.07230945 -.00000973  00000+0 -46447-4 0  9999
2 48134  53.0515  92.8743 0001599  90.0166 270.1006 15.06376601202140
STARLINK-2478           
1 48135U 21027AV  24336.07369785 -.00014312  00000+0 -94417-3 0  9996
2 48135  53.0533  98.0325 0001191  97.9037 262.2087 15.06388193202067
STARLINK-2479           
1 48136U 21027AW  24335.81433218  .00020773  00000+0  14080-2 0  9994
2 48136  53.0530  94.5353 0001556  71.5214 288.5944 15.06435541202497
STARLINK-2480           
1 48137U 21027AX  24335.72397503 -.00002717  00000+0 -16360-3 0  9995
2 48137  53.0530  74.4074 0001319  78.9695 281.1443 15.06393128202763
STARLINK-2481           
1 48138U 21027AY  24335.81795263  .00007095  00000+0  49448-3 0  9996
2 48138  53.0522  94.0167 0001487  84.8660 275.2499 15.06417998202509
STARLINK-2482           
1 48139U 21027AZ  24336.00778996 -.00023742  00000+0 -15817-2 0  9994
2 48139  53.0544  73.1638 0001751 103.1794 256.9391 15.06366984202417
STARLINK-2483           
1 48140U 21027BA  24336.02813680  .00000166  00000+0  30052-4 0  9991
2 48140  53.0547  93.6220 0002500  82.3314 277.7959 15.06387650202127
STARLINK-2484           
1 48141U 21027BB  24335.91667824  .01194580  00000+0  34136-1 0  9995
2 48141  53.0493  92.4947 0001212  65.8158  45.2060 15.32865944202130
STARLINK-2485           
1 48142U 21027BC  24336.00410886 -.00027345  00000+0 -18248-2 0  9993
2 48142  53.0546  73.1769 0002476 107.8723 252.2536 15.06379950202413
STARLINK-2486           
1 48143U 21027BD  24336.12806617  .00002172  00000+0  16467-3 0  9999
2 48143  53.0558  27.7251 0002665  83.9712 276.1580 15.06402942203053
STARLINK-2487           
1 48144U 21027BE  24336.01148888  .00001535  00000+0  12199-3 0  9997
2 48144  53.0559  73.1499 0000667 254.5463 105.5453 15.06365707202413
STARLINK-2488           
1 48145U 21027BF  24336.01515796 -.00012836  00000+0 -84459-3 0  9990
2 48145  53.0560  73.1311 0000860 102.7720 257.3365 15.06391252202416
STARLINK-2491           
1 48148U 21027BJ  24335.84743798  .00015866  00000+0  10806-2 0  9996
2 48148  53.0514  93.8867 0001062 103.5121 256.5987 15.06435962202106
STARLINK-2492           
1 48149U 21027BK  24335.99306256 -.00006131  00000+0 -39316-3 0  9992
2 48149  53.0528  73.2312 0003166  80.2877 279.8469 15.06381226202404
STARLINK-2493           
1 48150U 21027BL  24335.99673104 -.00029367  00000+0 -19618-2 0  9991
2 48150  53.0528  73.2147 0001684  98.8133 261.3046 15.06379459202418
STARLINK-2503           
1 48151U 21027BM  24336.00041247 -.00024764  00000+0 -16500-2 0  9995
2 48151  53.0544  73.1973 0000419 136.2647 223.8375 15.06387482202418
SHIYAN 6 03 (SY-6 03)   
1 48157U 21028A   24335.77458638  .00000052  00000+0  96558-4 0  9996
2 48157  99.5346 336.7859 0046973 120.5734 240.0063 13.77544748181932
ONEWEB-0176             
1 48210U 21031A   24335.90738409 -.00000152  00000+0 -44515-3 0  9990
2 48210  87.9028  41.7100 0001754  99.4672 260.6656 13.14502300174314
ONEWEB-0184             
1 48211U 21031B   24335.80431480  .00000231  00000+0  58945-3 0  9997
2 48211  87.9024  41.7083 0001019  76.4224 283.7019 13.14504610174273
ONEWEB-0179             
1 48212U 21031C   24335.92641925 -.00000023  00000+0 -95493-4 0  9999
2 48212  87.9023  41.6932 0001808 103.6407 256.4924 13.14501879174330
ONEWEB-0180             
1 48213U 21031D   24335.88358674 -.00002378  00000+0 -64507-2 0  9996
2 48213  87.9020  41.6954 0001775 101.1295 259.0034 13.14511529174214
ONEWEB-0218             
1 48214U 21031E   24335.90579946 -.00000134  00000+0 -39621-3 0  9995
2 48214  87.9023  41.6923 0000781  86.6419 273.4800 13.14502119174378
ONEWEB-0209             
1 48215U 21031F   24335.89470513  .00000005  00000+0 -22107-4 0  9992
2 48215  87.9025  41.7324 0001700 106.8059 253.3257 13.14503117174376
ONEWEB-0198             
1 48216U 21031G   24335.42212777  .00000226  00000+0  57625-3 0  9994
2 48216  87.9029  41.8298 0001377 106.4750 253.6531 13.14500962174425
ONEWEB-0189             
1 48217U 21031H   24336.19599188  .00000115  00000+0  27524-3 0  9996
2 48217  87.9024  41.6508 0001358 109.7590 250.3686 13.14501307174261
